{
  "source": {
    "type": "design_continuous_thrust",
    "generated_utc": "2026-05-21T03:54:48Z",
    "hard_constraint_passed": true
  },
  "earth": {
    "mu_km3_s2": 398600.4418,
    "Re_km": 6378.137,
    "J2": 0.00108262668,
    "omega_e_rad_s": 7.2921158553e-05,
    "use_J2": true
  },
  "launch_mass_kg": 6515.0,
  "t0_epoch": "2026-05-14T13:09:19Z",
  "t0_orbit": {
    "semi_major_axis_m": 29478137.0,
    "eccentricity": 0.77684692,
    "inclination_deg": 16.5,
    "argument_of_perigee_deg": 200.0,
    "raan_deg": 8.53237,
    "mean_anomaly_deg": 1.85437
  },
  "maneuver_count": 5,
  "maneuvers": [
    {
      "maneuver_index": 1,
      "Tn_start_min": 1220.2650542119732,
      "burn_duration_min": 68.64709536234545,
      "control_fuel_%": 1.73,
      "settle_duration_s": 240.0,
      "direction_mode": "local_horizontal_yaw",
      "yaw_angle_deg": 11.926209699561927,
      "delta_deg": -11.881938432564985,
      "dv_direction": 1,
      "orbit_control_thrust_n": 490.0,
      "orbit_control_isp_s": 314.1,
      "settle_thrust_n": 20.0,
      "settle_isp_s": 290.0
    },
    {
      "maneuver_index": 2,
      "Tn_start_min": 3987.6284107328415,
      "burn_duration_min": 55.95106061299657,
      "control_fuel_%": 1.73,
      "settle_duration_s": 240.0,
      "direction_mode": "local_horizontal_yaw",
      "yaw_angle_deg": 11.835895742443007,
      "delta_deg": -11.785633406175652,
      "dv_direction": 1,
      "orbit_control_thrust_n": 490.0,
      "orbit_control_isp_s": 314.1,
      "settle_thrust_n": 20.0,
      "settle_isp_s": 290.0
    },
    {
      "maneuver_index": 3,
      "Tn_start_min": 7054.493621392776,
      "burn_duration_min": 65.91520818074605,
      "control_fuel_%": 1.73,
      "settle_duration_s": 240.0,
      "direction_mode": "local_horizontal_yaw",
      "yaw_angle_deg": 11.634317721690556,
      "delta_deg": -11.583967581438413,
      "dv_direction": 1,
      "orbit_control_thrust_n": 490.0,
      "orbit_control_isp_s": 314.1,
      "settle_thrust_n": 20.0,
      "settle_isp_s": 290.0
    },
    {
      "maneuver_index": 4,
      "Tn_start_min": 9519.503959992202,
      "burn_duration_min": 70.33818308512309,
      "control_fuel_%": 1.73,
      "settle_duration_s": 240.0,
      "direction_mode": "local_horizontal_yaw",
      "yaw_angle_deg": 12.229970042457085,
      "delta_deg": -12.174150720615387,
      "dv_direction": 1,
      "orbit_control_thrust_n": 490.0,
      "orbit_control_isp_s": 314.1,
      "settle_thrust_n": 20.0,
      "settle_isp_s": 290.0
    },
    {
      "maneuver_index": 5,
      "Tn_start_min": 10378.502148615185,
      "burn_duration_min": 26.097077051797896,
      "control_fuel_%": 1.73,
      "settle_duration_s": 240.0,
      "direction_mode": "local_horizontal_yaw",
      "yaw_angle_deg": -178.53775374827376,
      "delta_deg": 1.455173432947577,
      "dv_direction": -1,
      "orbit_control_thrust_n": 490.0,
      "orbit_control_isp_s": 314.1,
      "settle_thrust_n": 20.0,
      "settle_isp_s": 290.0
    }
  ]
}